NORAD_CAT_ID,OBJECT_NAME,OBJECT_TYPE,EPOCH,MEAN_MOTION,ECCENTRICITY,INCLINATION,RA_OF_ASC_NODE,ARG_OF_PERICENTER,MEAN_ANOMALY,BSTAR,MEAN_MOTION_DOT,MEAN_MOTION_DDOT,TLE_LINE0,TLE_LINE1,TLE_LINE2,SEMIMAJOR_AXIS,PERIOD,APOGEE,PERIGEE,DECAYED
52612.0,STARLINK-4002,PAYLOAD,2023-02-24 21:57:15,15.0884835,0.000115,53.2146,216.6039,85.4314,274.6809,0.00027912,4.158e-05,0.0,0 STARLINK-4002,1 52612U 22052Q   23055.91476445  .00004158  00000-0  27912-3 0  9994,2 52612  53.2146 216.6039 0001150  85.4314 274.6809 15.08848350 43845,6917.855,95.437,540.515,538.924,0.0
52612.0,STARLINK-4002,PAYLOAD,2023-02-25 13:51:07,15.08834852,0.0001299,53.2153,213.6308,90.0618,270.0523,2.2181e-05,6.5e-07,0.0,0 STARLINK-4002,1 52612U 22052Q   23056.57717096  .00000065  00000-0  22181-4 0  9994,2 52612  53.2153 213.6308 0001299  90.0618 270.0523 15.08834852 43577,6917.896,95.438,540.66,538.862,0.0
52612.0,STARLINK-4002,PAYLOAD,2023-02-25 18:37:16,15.08843233,0.0001188,53.215,212.7388,92.1701,267.9427,0.00012721,1.737e-05,0.0,0 STARLINK-4002,1 52612U 22052Q   23056.77588794  .00001737  00000-0  12721-3 0  9992,2 52612  53.2150 212.7388 0001188  92.1701 267.9427 15.08843233 43970,6917.871,95.437,540.557,538.914,0.0
52612.0,STARLINK-4002,PAYLOAD,2023-02-25 20:12:39,15.08845625,0.0001234,53.2146,212.4414,89.7266,270.3867,0.00015623,2.2e-05,0.0,0 STARLINK-4002,1 52612U 22052Q   23056.84212729  .00002200  00000-0  15623-3 0  9992,2 52612  53.2146 212.4414 0001234  89.7266 270.3867 15.08845625 43616,6917.863,95.437,540.582,538.875,0.0
52612.0,STARLINK-4002,PAYLOAD,2023-02-26 13:41:54,15.08849821,0.0001241,53.2151,209.1705,93.1708,266.9426,0.00024787,3.66e-05,0.0,0 STARLINK-4002,1 52612U 22052Q   23057.57076497  .00003660  00000-0  24787-3 0  9995,2 52612  53.2151 209.1705 0001241  93.1708 266.9426 15.08849821 43722,6917.85,95.437,540.574,538.857,0.0
52612.0,STARLINK-4002,PAYLOAD,2023-02-26 18:28:03,15.08862979,0.00012,53.2151,208.2786,91.4668,268.6462,0.00051368,7.902e-05,0.0,0 STARLINK-4002,1 52612U 22052Q   23057.76947997  .00007902  00000-0  51368-3 0  9996,2 52612  53.2151 208.2786 0001200  91.4668 268.6462 15.08862979 44125,6917.81,95.436,540.505,538.845,0.0
52612.0,STARLINK-4002,PAYLOAD,2023-02-26 20:03:26,15.08865967,0.0001161,53.2149,207.9805,90.6164,269.4961,0.00068349,0.00010614,0.0,0 STARLINK-4002,1 52612U 22052Q   23057.83571867  .00010614  00000-0  68349-3 0  9994,2 52612  53.2149 207.9805 0001161  90.6164 269.4961 15.08865967 43760,6917.801,95.436,540.469,538.863,0.0
52612.0,STARLINK-4002,PAYLOAD,2023-02-27 02:24:58,15.08837595,2.05e-05,53.215,206.7899,159.788,200.3121,-0.00038038,-6.335e-05,0.0,0 STARLINK-4002,1 52612U 22052Q   23058.10068184 -.00006335  00000-0 -38038-3 0  9997,2 52612  53.2150 206.7899 0000205 159.7880 200.3121 15.08837595 44176,6917.888,95.438,539.895,539.611,0.0
52612.0,STARLINK-4002,PAYLOAD,2023-02-27 10:21:55,15.08830943,6.99e-05,53.2148,205.3043,118.8161,241.2901,-0.00021159,-3.653e-05,0.0,0 STARLINK-4002,1 52612U 22052Q   23058.43188836 -.00003653  00000-0 -21159-3 0  9996,2 52612  53.2148 205.3043 0000699 118.8161 241.2901 15.08830943 43858,6917.908,95.438,540.257,539.29,0.0
52612.0,STARLINK-4002,PAYLOAD,2023-02-27 18:18:50,15.0889234,0.0001051,53.2147,203.8178,99.4756,260.6355,0.002566,0.00040845,0.0,0 STARLINK-4002,1 52612U 22052Q   23058.76307950  .00040845  00000-0  25660-2 0  9994,2 52612  53.2147 203.8178 0001051  99.4756 260.6355 15.08892340 44270,6917.72,95.434,540.312,538.858,0.0
52612.0,STARLINK-4002,PAYLOAD,2023-02-27 19:54:13,15.08867153,0.0001034,53.2144,203.5207,102.6194,257.4914,0.0023757,0.00037752,0.0,0 STARLINK-4002,1 52612U 22052Q   23058.82932310  .00037752  00000-0  23757-2 0  9993,2 52612  53.2144 203.5207 0001034 102.6194 257.4914 15.08867153 43910,6917.797,95.436,540.378,538.947,0.0
52612.0,STARLINK-4002,PAYLOAD,2023-02-28 02:15:46,15.08846534,0.0001305,53.2147,202.3312,91.6065,268.5076,0.00077291,0.00012036,0.0,0 STARLINK-4002,1 52612U 22052Q   23059.09428667  .00012036  00000-0  77291-3 0  9999,2 52612  53.2147 202.3312 0001305  91.6065 268.5076 15.08846534 44320,6917.86,95.437,540.628,538.823,0.0
52612.0,STARLINK-4002,PAYLOAD,2023-02-28 13:23:28,15.08845688,0.0001804,53.214,200.2493,82.2803,277.8394,0.00090266,0.00014109,0.0,0 STARLINK-4002,1 52612U 22052Q   23059.55796871  .00014109  00000-0  90266-3 0  9995,2 52612  53.2140 200.2493 0001804  82.2803 277.8394 15.08845688 44022,6917.863,95.437,540.976,538.48,0.0
52612.0,STARLINK-4002,PAYLOAD,2023-02-28 16:34:14,15.08850533,8.58e-05,53.2138,199.6545,93.822,266.287,0.00061055,9.445e-05,0.0,0 STARLINK-4002,1 52612U 22052Q   23059.69044479  .00009445  00000-0  61055-3 0  9991,2 52612  53.2138 199.6545 0000858  93.8220 266.2870 15.08850533 44416,6917.848,95.437,540.307,539.12,0.0
52612.0,STARLINK-4002,PAYLOAD,2023-02-28 19:45:00,15.08848607,0.0001096,53.214,199.0609,81.1151,278.9965,0.0010727,0.00016829,0.0,0 STARLINK-4002,1 52612U 22052Q   23059.82292560  .00016829  00000-0  10727-2 0  9995,2 52612  53.2140 199.0609 0001096  81.1151 278.9965 15.08848607 44067,6917.854,95.437,540.477,538.961,0.0
52612.0,STARLINK-4002,PAYLOAD,2023-03-01 02:06:34,15.0881564,0.0002435,53.2138,197.8695,86.3074,273.8197,6.1299e-05,6.87e-06,0.0,0 STARLINK-4002,1 52612U 22052Q   23060.08789809  .00000687  00000-0  61299-4 0  9999,2 52612  53.2138 197.8695 0002435  86.3074 273.8197 15.08815640 44471,6917.955,95.439,541.504,538.135,0.0
52612.0,STARLINK-4002,PAYLOAD,2023-03-01 13:14:16,15.08826279,0.0001473,53.2138,195.789,90.1992,269.9169,0.00043402,6.624e-05,0.0,0 STARLINK-4002,1 52612U 22052Q   23060.55158006  .00006624  00000-0  43402-3 0  9992,2 52612  53.2138 195.7890 0001473  90.1992 269.9169 15.08826279 44541,6917.922,95.438,540.806,538.768,0.0
52612.0,STARLINK-4002,PAYLOAD,2023-03-02 14:40:26,15.08863006,0.0001485,53.2139,191.0322,76.8831,283.2327,0.0013943,0.00021986,0.0,0 STARLINK-4002,1 52612U 22052Q   23061.61142012  .00021986  00000-0  13943-2 0  9994,2 52612  53.2139 191.0322 0001485  76.8831 283.2327 15.08863006 44709,6917.81,95.436,540.702,538.648,0.0
52612.0,STARLINK-4002,PAYLOAD,2023-03-03 01:48:08,15.08862911,0.000147,53.2141,188.9511,76.3547,283.7609,0.00067699,0.00010509,0.0,0 STARLINK-4002,1 52612U 22052Q   23062.07509482  .00010509  00000-0  67699-3 0  9990,2 52612  53.2141 188.9511 0001470  76.3547 283.7609 15.08862911 44779,6917.81,95.436,540.692,538.658,0.0
52612.0,STARLINK-4002,PAYLOAD,2023-03-03 19:17:21,15.08894782,9.6e-05,53.2151,185.6771,93.274,266.8362,0.0017347,0.00027469,0.0,0 STARLINK-4002,1 52612U 22052Q   23062.80371780  .00027469  00000-0  17347-2 0  9996,2 52612  53.2151 185.6771 0000960  93.2740 266.8362 15.08894782 44519,6917.713,95.434,540.242,538.914,0.0
52612.0,STARLINK-4002,PAYLOAD,2023-03-04 01:38:54,15.0885501,0.0001073,53.2135,184.488,115.6111,244.4992,0.00055785,8.605e-05,0.0,0 STARLINK-4002,1 52612U 22052Q   23063.06868640  .00008605  00000-0  55785-3 0  9991,2 52612  53.2135 184.4880 0001073 115.6111 244.4992 15.08855010 44923,6917.835,95.437,540.442,538.957,0.0
52612.0,STARLINK-4002,PAYLOAD,2023-03-04 11:11:13,15.08831997,0.0001511,53.2128,182.7036,120.9105,239.2035,0.00089423,0.00013969,0.0,0 STARLINK-4002,1 52612U 22052Q   23063.46613012  .00013969  00000-0  89423-3 0  9991,2 52612  53.2128 182.7036 0001511 120.9105 239.2035 15.08831997 44612,6917.905,95.438,540.815,538.725,0.0
52612.0,STARLINK-4002,PAYLOAD,2023-03-04 14:21:59,15.08850409,0.0001355,53.2146,182.1081,127.462,232.6496,0.00059848,9.252e-05,0.0,0 STARLINK-4002,1 52612U 22052Q   23063.59860785  .00009252  00000-0  59848-3 0  9994,2 52612  53.2146 182.1081 0001355 127.4620 232.6496 15.08850409 45007,6917.849,95.437,540.651,538.776,0.0
52612.0,STARLINK-4002,PAYLOAD,2023-03-04 19:08:09,15.08857669,0.0001338,53.2143,181.2163,123.8662,236.2458,0.0026025,0.00041394,0.0,0 STARLINK-4002,1 52612U 22052Q   23063.79732918  .00041394  00000-0  26025-2 0  9995,2 52612  53.2143 181.2163 0001338 123.8662 236.2458 15.08857669 44666,6917.826,95.436,540.617,538.766,0.0
52612.0,STARLINK-4002,PAYLOAD,2023-03-05 22:09:44,15.08857399,0.00011,53.2165,176.1613,145.8982,214.2081,0.0027459,0.00043705,0.0,0 STARLINK-4002,1 52612U 22052Q   23064.92342829  .00043705  00000-0  27459-2 0  9999,2 52612  53.2165 176.1613 0001100 145.8982 214.2081 15.08857399 44836,6917.827,95.436,540.453,538.931,0.0
52612.0,STARLINK-4002,PAYLOAD,2023-03-06 10:52:49,15.08854981,0.0001381,53.2161,173.7854,76.1525,283.962,0.0013886,0.0002189,0.0,0 STARLINK-4002,1 52612U 22052Q   23065.45335107  .00021890  00000-0  13886-2 0  9999,2 52612  53.2161 173.7854 0001381  76.1525 283.9620 15.08854981 45288,6917.835,95.437,540.655,538.744,0.0
52612.0,STARLINK-4002,PAYLOAD,2023-03-06 18:49:44,15.08900773,0.0001597,53.2155,172.2932,102.6009,257.5161,0.0027902,0.00044473,0.0,0 STARLINK-4002,1 52612U 22052Q   23065.78453786  .00044473  00000-0  27902-2 0  9995,2 52612  53.2155 172.2932 0001597 102.6009 257.5161 15.08900773 45337,6917.695,95.434,540.664,538.455,0.0
52612.0,STARLINK-4002,PAYLOAD,2023-03-07 07:32:49,15.08843398,7.2e-05,53.2165,169.9189,109.5727,250.5343,0.00072838,0.00011324,0.0,0 STARLINK-4002,1 52612U 22052Q   23066.31446221  .00011324  00000-0  72838-3 0  9999,2 52612  53.2165 169.9189 0000720 109.5727 250.5343 15.08843398 45418,6917.87,95.437,540.233,539.237,0.0
52612.0,STARLINK-4002,PAYLOAD,2023-03-07 17:05:08,15.08891478,0.0001047,53.2153,168.1338,100.5047,259.6063,0.0039778,0.00063681,0.0,0 STARLINK-4002,1 52612U 22052Q   23066.71189826  .00063681  00000-0  39778-2 0  9996,2 52612  53.2153 168.1338 0001047 100.5047 259.6063 15.08891478 45478,6917.723,95.434,540.312,538.864,0.0
52612.0,STARLINK-4002,PAYLOAD,2023-03-08 07:23:36,15.08859731,0.0001377,53.2144,165.4558,99.0476,261.0672,0.0032701,0.00052169,0.0,0 STARLINK-4002,1 52612U 22052Q   23067.30806181  .00052169  00000-0  32701-2 0  9990,2 52612  53.2144 165.4558 0001377  99.0476 261.0672 15.08859731 45565,6917.82,95.436,540.638,538.732,0.0
